[{"OBJECT_NAME":"FLYING LAPTOP","OBJECT_ID":"2017-042G","EPOCH":"2026-03-09T23:28:27.762240","MEAN_MOTION":15.00523488,"ECCENTRICITY":0.00192138,"INCLINATION":97.4274,"RA_OF_ASC_NODE":228.6392,"ARG_OF_PERICENTER":94.5564,"MEAN_ANOMALY":265.7856,"EPHEMERIS_TYPE":0,"CLASSIFICATION_TYPE":"U","NORAD_CAT_ID":42831,"ELEMENT_SET_NO":999,"REV_AT_EPOCH":47157,"BSTAR":0.00042943592,"MEAN_MOTION_DOT":5.379e-5,"MEAN_MOTION_DDOT":0},{"OBJECT_NAME":"STARLINK-6317","OBJECT_ID":"2023-065Z","EPOCH":"2026-03-09T10:57:06.546528","MEAN_MOTION":15.02535886,"ECCENTRICITY":0.00015262,"INCLINATION":43.004,"RA_OF_ASC_NODE":211.2626,"ARG_OF_PERICENTER":266.4455,"MEAN_ANOMALY":93.6213,"EPHEMERIS_TYPE":0,"CLASSIFICATION_TYPE":"U","NORAD_CAT_ID":56526,"ELEMENT_SET_NO":999,"REV_AT_EPOCH":15659,"BSTAR":-3.4543539e-5,"MEAN_MOTION_DOT":-6.7e-6,"MEAN_MOTION_DDOT":0}]
